OPS 6582 (TRANSIT 5B-5) 
1 00965U 64083D   23001.78458292  .00000089  00000+0  11233-3 0  9991
2 00965  90.0278 196.0768 0041462  11.9350 358.5767 13.56799168872419
OSCAR 7 (AO-7)          
1 07530U 74089B   23002.38684134 -.00000021  00000+0  15683-3 0  9996
2 07530 101.9304 348.0615 0012359  21.6853 151.0567 12.53659814202639
UOSAT 2 (UO-11)         
1 14781U 84021B   23001.70675258  .00001406  00000+0  17454-3 0  9996
2 14781  97.6386 345.3763 0009248  38.1121 322.0746 14.84082449 69443
NOAA 9                  
1 15427U 84123A   23001.83479255  .00000179  00000+0  11342-3 0  9996
2 15427  99.0715 342.5893 0014365 326.6946  95.3159 14.16262055964925
LUSAT (LO-19)           
1 20442U 90005G   23001.66581719  .00000197  00000+0  88643-4 0  9994
2 20442  98.8225 334.8384 0010940 310.9278  49.0957 14.33132115721496
ITAMSAT (IO-26)         
1 22826U 93061D   23002.03606314  .00000129  00000+0  67138-4 0  9999
2 22826  98.8600  41.9210 0009109 172.6995 187.4321 14.30575590527052
RADIO ROSTO (RS-15)     
1 23439U 94085A   23001.97404130 -.00000039  00000+0  10000-3 0  9997
2 23439  64.8129 184.5207 0166408 238.7291 119.7240 11.27573197153878
JAS-2 (FO-29)           
1 24278U 96046B   23002.26555648 -.00000005  00000+0  27709-4 0  9990
2 24278  98.5146   3.5633 0351096 127.2915 236.0782 13.53126781302740
NOAA 15                 
1 25338U 98030A   23002.45649568  .00000171  00000+0  89558-4 0  9992
2 25338  98.6252  34.1980 0011396  78.9966 281.2496 14.26215584281635
TECHSAT 1B (GO-32)      
1 25397U 98043D   23001.74589573  .00000108  00000+0  66921-4 0  9990
2 25397  98.8462 317.9916 0000331 214.7335 145.3822 14.23799755271640
ISS (ZARYA)             
1 25544U 98067A   23002.42722733  .00017455  00000+0  31461-3 0  9996
2 25544  51.6446  69.6092 0005127 215.2634 232.7755 15.49857705376084
ORSTED                  
1 25635U 99008B   23002.22201388  .00000837  00000+0  20557-3 0  9999
2 25635  96.4412 185.4232 0136249 266.5839  91.9766 14.48649212259328
PHASE 3D (AO-40)        
1 26609U 00072B   23001.81985861 -.00000213  00000+0  00000+0 0  9999
2 26609   5.4801 218.4940 7961645 103.4317 346.7148  1.25588726101647
PCSAT (NO-44)           
1 26931U 01043C   23001.42205098  .00000152  00000+0  89398-4 0  9993
2 26931  67.0512 267.3804 0005299 276.9825  83.0674 14.30785350109721
SAUDISAT 1C (SO-50)     
1 27607U 02058C   23002.41126554  .00001533  00000+0  22830-3 0  9991
2 27607  64.5552  52.8975 0080252 256.8231 102.3908 14.76541304 77957
CUTE-1 (CO-55)          
1 27844U 03031E   23002.27267153  .00000385  00000+0  19178-3 0  9996
2 27844  98.6793  11.9735 0008898 243.7477 116.2787 14.22573438 12174
CUBESAT XI-IV (CO-57)   
1 27848U 03031J   23002.01712472  .00000322  00000+0  16502-3 0  9990
2 27848  98.6832  12.1937 0008691 260.9378  99.0816 14.22113107 11938
MOZHAYETS 4 (RS-22)     
1 27939U 03042A   23002.35719456  .00001225  00000+0  22378-3 0  9990
2 27939  98.2162 148.4102 0011644 303.2111  56.7977 14.67705424 30214
INMARSAT 4-F1           
1 28628U 05009A   23001.82845608 -.00000254  00000+0  00000+0 0  9997
2 28628   3.7652  37.0598 0003015 246.0038 259.8625  1.00270873 65012
NOAA 18                 
1 28654U 05018A   23002.49829887  .00000275  00000+0  17151-3 0  9992
2 28654  98.9297  77.5775 0015119 127.2803 232.9749 14.12831953908177
CUBESAT XI-V            
1 28895U 05043F   23002.33614230  .00001610  00000+0  31043-3 0  9994
2 28895  98.1304 136.0215 0015546 232.6869 127.2917 14.64780117916750
METOP-A                 
1 29499U 06044A   23002.47023061  .00001488  00000+0  20258-3 0  9997
2 29499  98.4264  58.1972 0197697 103.6734   4.4960 14.67727170842710
CARTOSAT-2 (IRS-P7)     
1 29710U 07001B   23001.83181546  .00025921  00000+0  52822-3 0  9999
2 29710  97.8763 124.9685 0130672  78.3488 283.2386 15.37425893866620
FALCONSAT-3             
1 30776U 07006E   23002.40307432  .00364034  49571-4  11555-2 0  9995
2 30776  35.4244  14.8267 0008494 183.2602 176.8087 15.90081019880762
CAPE-1                  
1 31130U 07012P   23001.73761998  .00001708  00000+0  36338-3 0  9995
2 31130  98.2913 306.1558 0095398  39.4374 321.3718 14.57525039833970
CARTOSAT-2A             
1 32783U 08021A   23002.23285148  .00000940  00000+0  13510-3 0  9999
2 32783  97.9408  65.1729 0011525 241.9385 118.0656 14.78698436792391
CUTE-1.7+APD II (CO-65) 
1 32785U 08021C   23001.87956958  .00003143  00000+0  32717-3 0  9992
2 32785  97.6844 331.8380 0011130 300.4199  59.5919 14.90491717796107
COMPASS-1               
1 32787U 08021E   23002.16300091  .00007313  00000+0  62959-3 0  9992
2 32787  97.5850 342.8016 0010781 188.6818 171.4219 14.97601128797821
AAUSAT-II               
1 32788U 08021F   23001.91273450  .00007274  00000+0  59532-3 0  9992
2 32788  97.5569 345.6715 0010075 160.0053 200.1567 14.99569693798253
DELFI-C3 (DO-64)        
1 32789U 08021G   23002.05563375  .00023918  00000+0  11168-2 0  9992
2 32789  97.3238  26.7032 0009066   4.0078 356.1229 15.19781229802129
SEEDS II (CO-66)        
1 32791U 08021J   23001.86183012  .00005029  00000+0  47637-3 0  9993
2 32791  97.6357 337.1262 0011005 245.7347 114.2724 14.93996285796889
YUBILEINY (RS-30)       
1 32953U 08025A   23002.25073725  .00000024  00000+0  10000-3 0  9994
2 32953  82.5040  60.3042 0019609 183.0967 177.0000 12.43116905663032
FENGYUN 3A              
1 32958U 08026A   23002.13590937  .00000155  00000+0  94609-4 0  9999
2 32958  98.5324 321.9276 0008953 161.9170 198.2326 14.18776805756501
PRISM (HITOMI)          
1 33493U 09002B   23001.83229091  .00007972  00000+0  61095-3 0  9991
2 33493  98.2454   5.2418 0016447 242.7381 117.2167 15.02030677758731
STARS (KUKAI)           
1 33498U 09002G   23002.45586786  .00002738  00000+0  36303-3 0  9991
2 33498  98.1502 262.6505 0010151 337.5811  22.4955 14.80669000751291
KKS-1 (KISEKI)          
1 33499U 09002H   23001.91700583  .00001289  00000+0  19314-3 0  9998
2 33499  98.1928 251.9758 0009928  45.8282 314.3741 14.76375225749950
NOAA 19                 
1 33591U 09005A   23002.59326503  .00000175  00000+0  11950-3 0  9996
2 33591  99.1250  45.6861 0013683 352.5934   7.5032 14.12659962716568
SWISSCUBE               
1 35932U 09051B   23001.84627090  .00001066  00000+0  24694-3 0  9999
2 35932  98.5424 228.0846 0007844 150.3919 209.7724 14.57166644704980
BEESAT-1                
1 35933U 09051C   23001.86997753  .00000928  00000+0  21651-3 0  9994
2 35933  98.5358 229.5892 0005877 159.8801 200.2629 14.57145594705063
ITUPSAT1                
1 35935U 09051E   23002.07863642  .00000852  00000+0  20359-3 0  9999
2 35935  98.5458 229.8038 0008087 166.2690 193.8728 14.56234484704810
XIWANG-1 (HOPE-1)       
1 36122U 09072B   23001.63965847  .00000004  00000+0  12306-3 0  9994
2 36122 100.2138 330.9585 0006903 243.9876 116.0527 13.16375813626881
CARTOSAT-2B             
1 36795U 10035A   23002.13509411  .00000766  00000+0  11142-3 0  9990
2 36795  97.9356  65.0861 0012748 326.4749  33.5684 14.78707031673423
TISAT 1                 
1 36799U 10035E   23001.58167659  .00004169  00000+0  39591-3 0  9995
2 36799  98.1582 224.7181 0011719 157.4038 202.7700 14.94048132677533
FENGYUN 3B              
1 37214U 10059A   23002.22198849  .00000000  00000+0  24142-4 0  9998
2 37214  99.0911  16.7218 0022644 152.3929 207.8478 14.14281367629057
JUGNU                   
1 37839U 11058B   23002.43160244  .00000498  00000+0  12239-3 0  9996
2 37839  19.9626  48.5193 0018775 190.2887 200.1030 14.12849708580427
SRMSAT                  
1 37841U 11058D   23002.03259573  .00000423  00000+0  87540-4 0  9995
2 37841  19.9710 134.5329 0011966   6.3206 150.5184 14.10808220579549
M-CUBED & EXP-1 PRIME   
1 37855U 11061F   23001.58576597  .00016395  00000+0  64518-3 0  9995
2 37855 101.7128 231.5753 0140602 186.8188 173.1120 15.17076219611696
HORYU-2                 
1 38340U 12025D   23001.78362481  .00002347  00000+0  33826-3 0  9993
2 38340  98.1820  88.0643 0010275 316.8653  43.1750 14.77272854571925
METOP-B                 
1 38771U 12049A   23002.47466765  .00000135  00000+0  81570-4 0  9997
2 38771  98.7045  64.4238 0001362 124.0263 301.3692 14.21491210534009
SARAL                   
1 39086U 13009A   23002.51940997  .00000138  00000+0  67697-4 0  9990
2 39086  98.5447 190.2326 0001913  69.4638 290.6751 14.32060497514970
AAUSAT 3                
1 39087U 13009B   23002.23757826  .00000585  00000+0  21425-3 0  9991
2 39087  98.3839 201.7003 0013057  35.8332 324.3719 14.36393488516114
STRAND-1                
1 39090U 13009E   23001.83385137  .00000370  00000+0  14378-3 0  9993
2 39090  98.3911 199.7084 0009809  45.3655 314.8329 14.35399228515878
BRITE-AUSTRIA           
1 39091U 13009F   23001.82277189  .00000207  00000+0  86916-4 0  9997
2 39091  98.3933 198.8987 0011362  51.2189 309.0010 14.35349797515891
UNIBRITE                
1 39092U 13009G   23002.00169242  .00000224  00000+0  93223-4 0  9997
2 39092  98.3968 198.8734 0010196  46.9472 313.2566 14.35220942515871
SOMP                    
1 39134U 13015E   23001.72746672  .00034892  00000+0  96656-3 0  9997
2 39134  64.8576 127.9951 0027806 254.4216 105.3850 15.36412593537229
BEESAT-3                
1 39135U 13015F   23001.81990379  .00023413  00000+0  80962-3 0  9993
2 39135  64.8621 169.3827 0033761 253.5201 106.2221 15.29344577536380
BEESAT-2                
1 39136U 13015G   23001.82209803  .00018842  00000+0  68850-3 0  9992
2 39136  64.8711 178.9031 0025603 287.8449  71.9890 15.27873754536645
NEE-01 PEGASO           
1 39151U 13018B   23002.25536424  .00002252  00000+0  29317-3 0  9995
2 39151  98.0003 112.4337 0015954 334.9252  25.1184 14.81553326523115
CUBEBUG-1 (CAPITAN BETO)
1 39153U 13018D   23002.56052418  .00002277  00000+0  29076-3 0  9996
2 39153  98.0256 117.9715 0015613 327.9527  32.0735 14.82368771523327
